ONEWEB-0665             
1 55825U 23029AF  24306.58143694  .00000364  00000+0  94725-3 0  9998
2 55825  87.9029  47.5617 0001991  96.2886 263.8470 13.14504170 81556
ONEWEB-0666             
1 55826U 23029AG  24306.53976003 -.00000203  00000+0 -53157-3 0  9990
2 55826  87.9300  32.3726 0001451 109.9245 250.2045 13.20772995 82923
ONEWEB-0667             
1 55827U 23029AH  24306.53346403 -.00005563  00000+0 -13717-1 0  9996
2 55827  87.9299  32.3069 0002174  92.9243 267.2139 13.20798207 82918
ONEWEB-0669             
1 55828U 23029AJ  24306.52872814  .00000105  00000+0  22530-3 0  9996
2 55828  87.9298  32.3447 0001643 126.6445 233.4839 13.20770266 82914
ONEWEB-0670             
1 55829U 23029AK  24306.55921740 -.00000094  00000+0 -28850-3 0  9993
2 55829  87.9029  47.5765 0002140 106.6894 253.4471 13.14500722 81573
ONEWEB-0671             
1 55830U 23029AL  24306.55526986  .00000070  00000+0  14320-3 0  9997
2 55830  87.9173  62.8285 0001958 103.9701 256.1649 13.19724474 80736
ONEWEB-0672             
1 55831U 23029AM  24306.52399089  .00000092  00000+0  19535-3 0  9994
2 55831  87.9299  32.3302 0001422 105.0938 255.0352 13.20769015 82912
ONEWEB-0673             
1 55832U 23029AN  24306.60737748 -.00000037  00000+0 -12569-3 0  9993
2 55832  87.9168  62.7837 0002228  95.2899 264.8488 13.19727467 80749
